postcode;state;country
2016;NSW;Australia
2153;NSW;Australia
4211;QLD;Australia
2448;NSW;Australia
3216;VIC;Australia
2210;NSW;Australia
2650;NSW;Australia
2023;NSW;Australia
3044;VIC;Australia
4557;QLD;Australia
3799;VIC;Australia
2760;NSW;Australia
2428;NSW;Australia
3331;VIC;Australia
3058;VIC;Australia
2135;NSW;Australia
2233;NSW;Australia
2444;NSW;Australia
4413;QLD;Australia
4740;QLD;Australia
3218;VIC;Australia
4868;QLD;Australia
4116;QLD;Australia
2519;NSW;Australia
2756;NSW;Australia
2170;NSW;Australia
4005;QLD;Australia
4127;QLD;Australia
2535;NSW;Australia
4726;QLD;Australia
4805;QLD;Australia
2212;NSW;Australia
2207;NSW;Australia
3350;VIC;Australia
3931;VIC;Australia
4018;QLD;Australia
4670;QLD;Australia
2480;NSW;Australia
3212;VIC;Australia
2322;NSW;Australia
3198;VIC;Australia
2047;NSW;Australia
4503;QLD;Australia
2145;NSW;Australia
4350;QLD;Australia
2142;NSW;Australia
2029;NSW;Australia
2127;NSW;Australia
4280;QLD;Australia
2166;NSW;Australia
2046;NSW;Australia
2026;NSW;Australia
2765;NSW;Australia
2749;NSW;Australia
2745;NSW;Australia
3752;VIC;Australia
2217;NSW;Australia
2230;NSW;Australia
3046;VIC;Australia
3183;VIC;Australia
2070;NSW;Australia
2213;NSW;Australia
4208;QLD;Australia
2774;NSW;Australia
4133;QLD;Australia
4213;QLD;Australia
4170;QLD;Australia
2073;NSW;Australia
3561;VIC;Australia
2330;NSW;Australia
3977;VIC;Australia
2204;NSW;Australia
2086;NSW;Australia
2226;NSW;Australia
2075;NSW;Australia
2038;NSW;Australia
2069;NSW;Australia
2100;NSW;Australia
3133;VIC;Australia
3070;VIC;Australia
2777;NSW;Australia
2125;NSW;Australia
2766;NSW;Australia
2209;NSW;Australia
2160;NSW;Australia
2065;NSW;Australia
2150;NSW;Australia
2168;NSW;Australia
4171;QLD;Australia
2155;NSW;Australia
2517;NSW;Australia
2096;NSW;Australia
2750;NSW;Australia
2093;NSW;Australia
3204;VIC;Australia
4300;QLD;Australia
3844;VIC;Australia
4226;QLD;Australia
3192;VIC;Australia
2485;NSW;Australia
2097;NSW;Australia
4817;QLD;Australia
2516;NSW;Australia
3074;VIC;Australia
4508;QLD;Australia
4405;QLD;Australia
2452;NSW;Australia
2205;NSW;Australia
4132;QLD;Australia
4744;QLD;Australia
2158;NSW;Australia
3201;VIC;Australia
4178;QLD;Australia
2112;NSW;Australia
2033;NSW;Australia
4401;QLD;Australia
3186;VIC;Australia
4017;QLD;Australia
2315;NSW;Australia
2285;NSW;Australia
2219;NSW;Australia
4509;QLD;Australia
2759;NSW;Australia
2747;NSW;Australia
2227;NSW;Australia
2025;NSW;Australia
3191;VIC;Australia
3025;VIC;Australia
2263;NSW;Australia
2154;NSW;Australia
2119;NSW;Australia
3016;VIC;Australia
4113;QLD;Australia
2032;NSW;Australia
4352;QLD;Australia
3020;VIC;Australia
2116;NSW;Australia
3057;VIC;Australia
2099;NSW;Australia
3749;VIC;Australia
2148;NSW;Australia
3145;VIC;Australia
2021;NSW;Australia
2333;NSW;Australia
2783;NSW;Australia
2280;NSW;Australia
4120;QLD;Australia
3638;VIC;Australia
2074;NSW;Australia
2880;NSW;Australia
2430;NSW;Australia
4560;QLD;Australia
2088;NSW;Australia
2220;NSW;Australia
3031;VIC;Australia
2250;NSW;Australia
2261;NSW;Australia
3196;VIC;Australia
4680;QLD;Australia
3143;VIC;Australia
2063;NSW;Australia
3021;VIC;Australia
2138;NSW;Australia
4811;QLD;Australia
2085;NSW;Australia
3084;VIC;Australia
3170;VIC;Australia
2066;NSW;Australia
4078;QLD;Australia
2222;NSW;Australia
3152;VIC;Australia
2159;NSW;Australia
4655;QLD;Australia
4220;QLD;Australia
4012;QLD;Australia
2015;NSW;Australia
2776;NSW;Australia
3011;VIC;Australia
2761;NSW;Australia
2502;NSW;Australia
2110;NSW;Australia
2566;NSW;Australia
2506;NSW;Australia
2508;NSW;Australia
2036;NSW;Australia
2018;NSW;Australia
3666;VIC;Australia
4514;QLD;Australia
2525;NSW;Australia
4152;QLD;Australia
2200;NSW;Australia
3023;VIC;Australia
3500;VIC;Australia
2283;NSW;Australia
2102;NSW;Australia
2040;NSW;Australia
2304;NSW;Australia
2340;NSW;Australia
3580;VIC;Australia
3355;VIC;Australia
2287;NSW;Australia
2324;NSW;Australia
2323;NSW;Australia
2320;NSW;Australia
2346;NSW;Australia
2031;NSW;Australia
2064;NSW;Australia
2176;NSW;Australia
3195;VIC;Australia
2010;NSW;Australia
2768;NSW;Australia
2752;NSW;Australia
3802;VIC;Australia
3071;VIC;Australia
4735;QLD;Australia
3081;VIC;Australia
3205;VIC;Australia
2165;NSW;Australia
3125;VIC;Australia
4214;QLD;Australia
2030;NSW;Australia
2767;NSW;Australia
2798;NSW;Australia
2117;NSW;Australia
4551;QLD;Australia
3064;VIC;Australia
3810;VIC;Australia
4151;QLD;Australia
2830;NSW;Australia
3030;VIC;Australia
4812;QLD;Australia
2141;NSW;Australia
3029;VIC;Australia
2173;NSW;Australia
3199;VIC;Australia
4506;QLD;Australia
2035;NSW;Australia
3340;VIC;Australia
3182;VIC;Australia
2450;NSW;Australia
2216;NSW;Australia
3796;VIC;Australia
3197;VIC;Australia
2232;NSW;Australia
2365;NSW;Australia
4701;QLD;Australia
4210;QLD;Australia
2223;NSW;Australia
4122;QLD;Australia
2515;NSW;Australia
3437;VIC;Australia
3338;VIC;Australia
2203;NSW;Australia
3356;VIC;Australia
3223;VIC;Australia
3032;VIC;Australia
3105;VIC;Australia
3101;VIC;Australia
2763;NSW;Australia
2089;NSW;Australia
2126;NSW;Australia
2147;NSW;Australia
2251;NSW;Australia
3127;VIC;Australia
3087;VIC;Australia
3131;VIC;Australia
3134;VIC;Australia
2193;NSW;Australia
4055;QLD;Australia
2530;NSW;Australia
4217;QLD;Australia
4020;QLD;Australia
2179;NSW;Australia
3130;VIC;Australia
4570;QLD;Australia
3215;VIC;Australia
3165;VIC;Australia
3936;VIC;Australia
2265;NSW;Australia
3034;VIC;Australia
2062;NSW;Australia
2162;NSW;Australia
3033;VIC;Australia
2144;NSW;Australia
3805;VIC;Australia
2642;NSW;Australia
3228;VIC;Australia
3444;VIC;Australia
2076;NSW;Australia
4124;QLD;Australia
4305;QLD;Australia
2579;NSW;Australia
2835;NSW;Australia
3337;VIC;Australia
2536;NSW;Australia
2770;NSW;Australia
2646;NSW;Australia
4558;QLD;Australia
2211;NSW;Australia
2570;NSW;Australia
4552;QLD;Australia
3082;VIC;Australia
2360;NSW;Australia
4223;QLD;Australia
4370;QLD;Australia
3150;VIC;Australia
2549;NSW;Australia
3040;VIC;Australia
4209;QLD;Australia
4173;QLD;Australia
2068;NSW;Australia
3806;VIC;Australia
2259;NSW;Australia
2260;NSW;Australia
4074;QLD;Australia
4215;QLD;Australia
3008;VIC;Australia
2748;NSW;Australia
2567;NSW;Australia
3015;VIC;Australia
4221;QLD;Australia
3121;VIC;Australia
4870;QLD;Australia
2118;NSW;Australia
2050;NSW;Australia
2120;NSW;Australia
3812;VIC;Australia
3111;VIC;Australia
3012;VIC;Australia
2197;NSW;Australia
3162;VIC;Australia
2037;NSW;Australia
3141;VIC;Australia
3178;VIC;Australia
3564;VIC;Australia
3550;VIC;Australia
3775;VIC;Australia
3004;VIC;Australia
3185;VIC;Australia
2447;NSW;Australia
3910;VIC;Australia
3621;VIC;Australia
4702;QLD;Australia
2133;NSW;Australia
3075;VIC;Australia
3911;VIC;Australia
2487;NSW;Australia
4123;QLD;Australia
2151;NSW;Australia
3156;VIC;Australia
3126;VIC;Australia
2027;NSW;Australia
3124;VIC;Australia
2564;NSW;Australia
2049;NSW;Australia
3690;VIC;Australia
3282;VIC;Australia
2576;NSW;Australia
3108;VIC;Australia
4165;QLD;Australia
2218;NSW;Australia
2190;NSW;Australia
2337;NSW;Australia
2307;NSW;Australia
2121;NSW;Australia
2716;NSW;Australia
3168;VIC;Australia
3076;VIC;Australia
2478;NSW;Australia
2560;NSW;Australia
2087;NSW;Australia
4505;QLD;Australia
2630;NSW;Australia
2225;NSW;Australia
3013;VIC;Australia
3136;VIC;Australia
2111;NSW;Australia
2106;NSW;Australia
3930;VIC;Australia
2291;NSW;Australia
2305;NSW;Australia
2300;NSW;Australia
4179;QLD;Australia
2539;NSW;Australia
3207;VIC;Australia
4340;QLD;Australia
3137;VIC;Australia
3068;VIC;Australia
4580;QLD;Australia
2041;NSW;Australia
4504;QLD;Australia
2306;NSW;Australia
4075;QLD;Australia
3975;VIC;Australia
4114;QLD;Australia
4341;QLD;Australia
4022;QLD;Australia
4820;QLD;Australia
3028;VIC;Australia
4035;QLD;Australia
2326;NSW;Australia
3429;VIC;Australia
4218;QLD;Australia
2380;NSW;Australia
3171;VIC;Australia
2565;NSW;Australia
3850;VIC;Australia
3807;VIC;Australia
4800;QLD;Australia
2577;NSW;Australia
2199;NSW;Australia
2134;NSW;Australia
4053;QLD;Australia
2800;NSW;Australia
2048;NSW;Australia
2194;NSW;Australia
2557;NSW;Australia
2548;NSW;Australia
2262;NSW;Australia
2463;NSW;Australia
2481;NSW;Australia
2072;NSW;Australia
3155;VIC;Australia
3095;VIC;Australia
4207;QLD;Australia
4110;QLD;Australia
2017;NSW;Australia
2769;NSW;Australia
4562;QLD;Australia
2571;NSW;Australia
3480;VIC;Australia
3551;VIC;Australia
2753;NSW;Australia
3093;VIC;Australia
4615;QLD;Australia
3174;VIC;Australia
2192;NSW;Australia
2290;NSW;Australia
3073;VIC;Australia
4810;QLD;Australia
4121;QLD;Australia
2229;NSW;Australia
4118;QLD;Australia
2594;NSW;Australia
3750;VIC;Australia
4019;QLD;Australia
2540;NSW;Australia
2293;NSW;Australia
2143;NSW;Australia
3630;VIC;Australia
2164;NSW;Australia
4869;QLD;Australia
2137;NSW;Australia
2354;NSW;Australia
4814;QLD;Australia
2282;NSW;Australia
2292;NSW;Australia
2171;NSW;Australia
2077;NSW;Australia
4873;QLD;Australia
4006;QLD;Australia
2754;NSW;Australia
2152;NSW;Australia
2067;NSW;Australia
2122;NSW;Australia
3976;VIC;Australia
2000;NSW;Australia
3175;VIC;Australia
2156;NSW;Australia
2228;NSW;Australia
3187;VIC;Australia
2680;NSW;Australia
2527;NSW;Australia
2163;NSW;Australia
2336;NSW;Australia
4415;QLD;Australia
3139;VIC;Australia
3147;VIC;Australia
3623;VIC;Australia
4356;QLD;Australia
2034;NSW;Australia
2196;NSW;Australia
2177;NSW;Australia
2234;NSW;Australia
2537;NSW;Australia
4720;QLD;Australia
3765;VIC;Australia
2486;NSW;Australia
4511;QLD;Australia
2795;NSW;Australia
3188;VIC;Australia
3730;VIC;Australia
3060;VIC;Australia
4131;QLD;Australia
2518;NSW;Australia
3158;VIC;Australia
2477;NSW;Australia
2195;NSW;Australia
2575;NSW;Australia
3400;VIC;Australia
3037;VIC;Australia
4507;QLD;Australia
2113;NSW;Australia
2443;NSW;Australia
3177;VIC;Australia
2641;NSW;Australia
4212;QLD;Australia
3241;VIC;Australia
3428;VIC;Australia
4227;QLD;Australia
4034;QLD;Australia
2558;NSW;Australia
2460;NSW;Australia
3173;VIC;Australia
2289;NSW;Australia
4500;QLD;Australia
4825;QLD;Australia
4161;QLD;Australia
3757;VIC;Australia
2871;NSW;Australia
2146;NSW;Australia
4380;QLD;Australia
3024;VIC;Australia
3934;VIC;Australia
3109;VIC;Australia
2136;NSW;Australia
2484;NSW;Australia
3225;VIC;Australia
4068;QLD;Australia
2214;NSW;Australia
3809;VIC;Australia
2454;NSW;Australia
4556;QLD;Australia
4573;QLD;Australia
2131;NSW;Australia
3184;VIC;Australia
2619;NSW;Australia
3138;VIC;Australia
3441;VIC;Australia
2101;NSW;Australia
4510;QLD;Australia
2647;NSW;Australia
2731;NSW;Australia
3284;VIC;Australia
2573;NSW;Australia
2206;NSW;Australia
4815;QLD;Australia
2526;NSW;Australia
4502;QLD;Australia
2710;NSW;Australia
2090;NSW;Australia
3038;VIC;Australia
3142;VIC;Australia
3442;VIC;Australia
4064;QLD;Australia
2529;NSW;Australia
3039;VIC;Australia
2061;NSW;Australia
3644;VIC;Australia
2104;NSW;Australia
2044;NSW;Australia
3043;VIC;Australia
2873;NSW;Australia
2541;NSW;Australia
2321;NSW;Australia
2079;NSW;Australia
3072;VIC;Australia
2007;NSW;Australia
2620;NSW;Australia
2231;NSW;Australia
2580;NSW;Australia
2020;NSW;Australia
2852;NSW;Australia
3677;VIC;Australia
4818;QLD;Australia
4519;QLD;Australia
4806;QLD;Australia
4610;QLD;Australia
4512;QLD;Australia
4306;QLD;Australia
4304;QLD;Australia
4301;QLD;Australia
4205;QLD;Australia
4051;QLD;Australia
4130;QLD;Australia
4115;QLD;Australia
4164;QLD;Australia
4128;QLD;Australia
3940;VIC;Australia
3939;VIC;Australia
3840;VIC;Australia
3804;VIC;Australia
2582;NSW;Australia
3747;VIC;Australia
3620;VIC;Australia
3151;VIC;Australia
3380;VIC;Australia
3280;VIC;Australia
3224;VIC;Australia
3222;VIC;Australia
3226;VIC;Australia
3190;VIC;Australia
3169;VIC;Australia
3163;VIC;Australia
3161;VIC;Australia
3791;VIC;Australia
4119;QLD;Australia
3140;VIC;Australia
3818;VIC;Australia
3106;VIC;Australia
3099;VIC;Australia
3754;VIC;Australia
3756;VIC;Australia
3061;VIC;Australia
3048;VIC;Australia
3036;VIC;Australia
3107;VIC;Australia
3022;VIC;Australia
3049;VIC;Australia
2870;NSW;Australia
2762;NSW;Australia
2794;NSW;Australia
2773;NSW;Australia
2640;NSW;Australia
2439;NSW;Australia
2528;NSW;Australia
2440;NSW;Australia
2325;NSW;Australia
2161;NSW;Australia
2848;NSW;Australia
4878;QLD;Australia
2775;NSW;Australia
2224;NSW;Australia
3219;VIC;Australia
2441;NSW;Australia
4877;QLD;Australia
3264;VIC;Australia
2681;NSW;Australia
3018;VIC;Australia
2043;NSW;Australia
2107;NSW;Australia
4567;QLD;Australia
4011;QLD;Australia
2221;NSW;Australia
2028;NSW;Australia
3941;VIC;Australia
3146;VIC;Australia
3585;VIC;Australia
4105;QLD;Australia
2094;NSW;Australia
2284;NSW;Australia
3808;VIC;Australia
3149;VIC;Australia
3114;VIC;Australia
3352;VIC;Australia
3129;VIC;Australia
4154;QLD;Australia
2114;NSW;Australia
4721;QLD;Australia
2011;NSW;Australia
4157;QLD;Australia
4799;QLD;Australia
2095;NSW;Australia
3103;VIC;Australia
4224;QLD;Australia
4344;QLD;Australia
2009;NSW;Australia
3144;VIC;Australia
3181;VIC;Australia
2665;NSW;Australia
2474;NSW;Australia
3166;VIC;Australia
2820;NSW;Australia
4059;QLD;Australia
4160;QLD;Australia
3189;VIC;Australia
4030;QLD;Australia
2042;NSW;Australia
4032;QLD;Australia
4103;QLD;Australia
2868;NSW;Australia
2358;NSW;Australia
2449;NSW;Australia
2299;NSW;Australia
4014;QLD;Australia
3056;VIC;Australia
2281;NSW;Australia
4007;QLD;Australia
2318;NSW;Australia
3821;VIC;Australia
4109;QLD;Australia
4216;QLD;Australia
2470;NSW;Australia
2563;NSW;Australia
2264;NSW;Australia
2445;NSW;Australia
4060;QLD;Australia
3214;VIC;Australia
4077;QLD;Australia
2327;NSW;Australia
4104;QLD;Australia
3172;VIC;Australia
2505;NSW;Australia
2115;NSW;Australia
2469;NSW;Australia
2705;NSW;Australia
3088;VIC;Australia
3966;VIC;Australia
3912;VIC;Australia
2446;NSW;Australia
2810;NSW;Australia
4061;QLD;Australia
3083;VIC;Australia
3915;VIC;Australia
4153;QLD;Australia
2267;NSW;Australia
3458;VIC;Australia
4421;QLD;Australia
3505;VIC;Australia
3006;VIC;Australia
4037;QLD;Australia
3918;VIC;Australia
2335;NSW;Australia
3079;VIC;Australia
2400;NSW;Australia
3148;VIC;Australia
2092;NSW;Australia
2714;NSW;Australia
3555;VIC;Australia
2008;NSW;Australia
3631;VIC;Australia
4228;QLD;Australia
4101;QLD;Australia
2022;NSW;Australia
4568;QLD;Australia
3115;VIC;Australia
4343;QLD;Australia
3116;VIC;Australia
2208;NSW;Australia
4125;QLD;Australia
4070;QLD;Australia
3194;VIC;Australia
2533;NSW;Australia
2758;NSW;Australia
4159;QLD;Australia
4879;QLD;Australia
2500;NSW;Australia
2298;NSW;Australia
2178;NSW;Australia
3240;VIC;Australia
2671;NSW;Australia
4455;QLD;Australia
4650;QLD;Australia
3160;VIC;Australia
3250;VIC;Australia
3342;VIC;Australia
3523;VIC;Australia
2350;NSW;Australia
2785;NSW;Australia
3995;VIC;Australia
3351;VIC;Australia
3000;VIC;Australia
2462;NSW;Australia
3041;VIC;Australia
3260;VIC;Australia
2534;NSW;Australia
4565;QLD;Australia
3618;VIC;Australia
2780;NSW;Australia
2167;NSW;Australia
3279;VIC;Australia
4106;QLD;Australia
4700;QLD;Australia
2799;NSW;Australia
4564;QLD;Australia
4860;QLD;Australia
3922;VIC;Australia
2256;NSW;Australia
4031;QLD;Australia
2779;NSW;Australia
4660;QLD;Australia
4073;QLD;Australia
3067;VIC;Australia
2843;NSW;Australia
3027;VIC;Australia
3066;VIC;Australia
2572;NSW;Australia
2128;NSW;Australia
4054;QLD;Australia
4069;QLD;Australia
2343;NSW;Australia
3377;VIC;Australia
3065;VIC;Australia
2295;NSW;Australia
4270;QLD;Australia
2316;NSW;Australia
3179;VIC;Australia
3933;VIC;Australia
4883;QLD;Australia
2081;NSW;Australia
2471;NSW;Australia
3053;VIC;Australia
4285;QLD;Australia
2546;NSW;Australia
4275;QLD;Australia
3132;VIC;Australia
3042;VIC;Australia
3085;VIC;Australia
2071;NSW;Australia
2821;NSW;Australia
4390;QLD;Australia
3793;VIC;Australia
3128;VIC;Australia
2869;NSW;Australia
3616;VIC;Australia
4750;QLD;Australia
3059;VIC;Australia
3153;VIC;Australia
2130;NSW;Australia
3213;VIC;Australia
3862;VIC;Australia
3610;VIC;Australia
4102;QLD;Australia
2060;NSW;Australia
3786;VIC;Australia
2019;NSW;Australia
2191;NSW;Australia
2713;NSW;Australia
3094;VIC;Australia
3122;VIC;Australia
2850;NSW;Australia
4272;QLD;Australia
3051;VIC;Australia
3634;VIC;Australia
3803;VIC;Australia
4515;QLD;Australia
2700;NSW;Australia
3123;VIC;Australia
2294;NSW;Australia
3978;VIC;Australia
3305;VIC;Australia
2198;NSW;Australia
2778;NSW;Australia
4730;QLD;Australia
4155;QLD;Australia
4000;QLD;Australia
4225;QLD;Australia
3556;VIC;Australia
4575;QLD;Australia
4715;QLD;Australia
2429;NSW;Australia
4555;QLD;Australia
2132;NSW;Australia
2045;NSW;Australia
2024;NSW;Australia
4076;QLD;Australia
3321;VIC;Australia
3193;VIC;Australia
2390;NSW;Australia
2806;NSW;Australia
2257;NSW;Australia
4172;QLD;Australia
3078;VIC;Australia
3104;VIC;Australia
3860;VIC;Australia
2658;NSW;Australia
3052;VIC;Australia
4163;QLD;Australia
2590;NSW;Australia
2550;NSW;Australia
2877;NSW;Australia
4311;QLD;Australia
3089;VIC;Australia
3996;NSW;Australia
